{"fetched_at":"2026-03-29T16:36:15Z","count":15609,"tles":[{"name":"STARLINK-32912","line1":"1 63088U 25037M   26087.89995579  .00002825  00000+0  24438-3 0  9996","line2":"2 63088  70.0009 305.8561 0002402 269.7035  90.3849 14.98337044 61587","category":"Starlink"}]}