{
  "norad_id": 63088,
  "name": "STARLINK-32912",
  "history": [
    {
      "epoch": "2026-03-28T21:35:56.180256",
      "apogee_km": 573.7040951546578,
      "perigee_km": 570.3641209269772,
      "latitude_deg": 36.359304597514665,
      "longitude_deg": -144.8042441601865,
      "semi_major_axis_km": 6950.171108040817,
      "eccentricity": 0.00024028,
      "inclination_deg": 70.0009,
      "raan_deg": 305.8561,
      "arg_perigee_deg": 269.7035,
      "mean_anomaly_deg": 90.3849,
      "mean_motion_rev_day": 14.98337044
    }
  ]
}